*******************************************************************************
Ephemeris / WWW_USER Mon Mar 10 06:40:08 2025 Pasadena, USA      / Horizons    
*******************************************************************************
Target body name: (2018 VA2)                      {source: JPL#8}
Center body name: Earth (399)                     {source: DE441}
Center-site name: Mauna Kea
*******************************************************************************
Start time      : A.D. 2018-Oct-22 04:03:00.0000 UT      
Stop  time      : A.D. 2018-Oct-22 16:09:00.0000 UT      
Step-size       : 1 minutes
*******************************************************************************
Target pole/equ : undefined
Target radii    : undefined                                                    
Center geodetic : 204.5278, 19.8260847, 4.21024   {E-lon(deg),Lat(deg),Alt(km)}
Center cylindric: 204.5278, 6006.35451, 2151.0229 {E-lon(deg),Dxy(km),Dz(km)}
Center pole/equ : ITRF93                          {East-longitude positive}
Center radii    : 6378.137, 6378.137, 6356.752 km {Equator_a, b, pole_c}       
Target primary  : Sun
Vis. interferer : MOON (R_eq= 1737.400) km        {source: DE441}
Rel. light bend : Sun                             {source: DE441}
Rel. lght bnd GM: 1.3271E+11 km^3/s^2                                          
Small-body perts: Yes                             {source: SB441-N16}
Atmos refraction: NO (AIRLESS)
RA format       : HMS
Time format     : CAL 
Calendar mode   : Mixed Julian/Gregorian
RTS-only print  : NO       
EOP file        : eop.250307.p250603                                           
EOP coverage    : DATA-BASED 1962-JAN-20 TO 2025-MAR-07. PREDICTS-> 2025-JUN-02
Units conversion: 1 au= 149597870.700 km, c= 299792.458 km/s, 1 day= 86400.0 s 
Table cut-offs 1: Elevation (-90.0deg=NO ),Airmass (>38.000=NO), Daylight (YES)
Table cut-offs 2: Solar elongation (  0.0,180.0=NO ),Local Hour Angle( 0.0=NO )
Table cut-offs 3: RA/DEC angular rate (     0.0=NO )                           
*******************************************************************************
Initial IAU76/J2000 heliocentric ecliptic osculating elements (au, days, deg.):
  EPOCH=  2458428.5 ! 2018-Nov-06.00 (TDB)         Residual RMS= .39675        
   EC= .3242664208426159   QR= .935847567628844    TP= 2458464.9625425939      
   OM= 226.0068906557846   W=  220.7446970607937   IN= 3.947636678272312       
  Equivalent ICRF heliocentric cartesian coordinates (au, au/d):
   X= 7.314601530918681E-01  Y= 6.289465658343808E-01  Z= 2.763726037901882E-01
  VX=-1.554701504922309E-02 VY= 1.109318211007817E-02 VZ= 3.366540373951610E-03
Asteroid physical parameters (km, seconds, rotational period in hours):        
   GM= n.a.                RAD= n.a.               ROTPER= n.a.                
   H= 27.08                G= .150                 B-V= n.a.                   
                           ALBEDO= n.a.            STYP= n.a.                  
*******************************************************************************
 Date__(UT)__HR:MN     R.A._________(ICRF)_________DEC
******************************************************
$$SOE
 2018-Oct-22 10:12  m  00 43 15.698260 +25 15 18.48961
 2018-Oct-22 10:13  m  00 43 15.687475 +25 15 18.70108
 2018-Oct-22 10:14  m  00 43 15.676742 +25 15 18.91162
 2018-Oct-22 10:15  m  00 43 15.666060 +25 15 19.12122
 2018-Oct-22 10:16  m  00 43 15.655432 +25 15 19.32989
 2018-Oct-22 10:17  m  00 43 15.644858 +25 15 19.53763
 2018-Oct-22 10:18  m  00 43 15.634338 +25 15 19.74443
 2018-Oct-22 10:19  m  00 43 15.623873 +25 15 19.95030
 2018-Oct-22 10:20  m  00 43 15.613464 +25 15 20.15524
 2018-Oct-22 10:21  m  00 43 15.603111 +25 15 20.35926
 2018-Oct-22 10:22  m  00 43 15.592816 +25 15 20.56235
 2018-Oct-22 10:23  m  00 43 15.582578 +25 15 20.76451
 2018-Oct-22 10:24  m  00 43 15.572400 +25 15 20.96575
 2018-Oct-22 10:25  m  00 43 15.562280 +25 15 21.16606
 2018-Oct-22 10:26  m  00 43 15.552221 +25 15 21.36546
 2018-Oct-22 10:27  m  00 43 15.542222 +25 15 21.56393
 2018-Oct-22 10:28  m  00 43 15.532285 +25 15 21.76149
 2018-Oct-22 10:29  m  00 43 15.522410 +25 15 21.95813
 2018-Oct-22 10:30  m  00 43 15.512598 +25 15 22.15385
 2018-Oct-22 10:31  m  00 43 15.502849 +25 15 22.34866
 2018-Oct-22 10:32  m  00 43 15.493165 +25 15 22.54255
 2018-Oct-22 10:33  m  00 43 15.483546 +25 15 22.73554
 2018-Oct-22 10:34  m  00 43 15.473992 +25 15 22.92762
 2018-Oct-22 10:35  m  00 43 15.464504 +25 15 23.11878
 2018-Oct-22 10:36  m  00 43 15.455084 +25 15 23.30905
 2018-Oct-22 10:37  m  00 43 15.445731 +25 15 23.49840
 2018-Oct-22 10:38  m  00 43 15.436447 +25 15 23.68686
 2018-Oct-22 10:39  m  00 43 15.427232 +25 15 23.87441
 2018-Oct-22 10:40  m  00 43 15.418086 +25 15 24.06106
 2018-Oct-22 10:41  m  00 43 15.409011 +25 15 24.24681
 2018-Oct-22 10:42  m  00 43 15.400007 +25 15 24.43167
 2018-Oct-22 10:43  m  00 43 15.391075 +25 15 24.61563
 2018-Oct-22 10:44  m  00 43 15.382216 +25 15 24.79870
 2018-Oct-22 10:45  m  00 43 15.373430 +25 15 24.98088
 2018-Oct-22 10:46  m  00 43 15.364717 +25 15 25.16216
 2018-Oct-22 10:47  m  00 43 15.356079 +25 15 25.34256
 2018-Oct-22 10:48  m  00 43 15.347516 +25 15 25.52207
 2018-Oct-22 10:49  m  00 43 15.339030 +25 15 25.70070
 2018-Oct-22 10:50  m  00 43 15.330619 +25 15 25.87845
 2018-Oct-22 10:51  m  00 43 15.322286 +25 15 26.05531
 2018-Oct-22 10:52  m  00 43 15.314031 +25 15 26.23130
 2018-Oct-22 10:53  m  00 43 15.305855 +25 15 26.40641
 2018-Oct-22 10:54  m  00 43 15.297757 +25 15 26.58064
 2018-Oct-22 10:55  m  00 43 15.289740 +25 15 26.75400
 2018-Oct-22 10:56  m  00 43 15.281803 +25 15 26.92649
 2018-Oct-22 10:57  m  00 43 15.273948 +25 15 27.09811
 2018-Oct-22 10:58  m  00 43 15.266174 +25 15 27.26886
 2018-Oct-22 10:59  m  00 43 15.258483 +25 15 27.43875
 2018-Oct-22 11:00  m  00 43 15.250875 +25 15 27.60777
 2018-Oct-22 11:01  m  00 43 15.243351 +25 15 27.77593
 2018-Oct-22 11:02  m  00 43 15.235912 +25 15 27.94323
 2018-Oct-22 11:03  m  00 43 15.228558 +25 15 28.10967
 2018-Oct-22 11:04  m  00 43 15.221289 +25 15 28.27526
 2018-Oct-22 11:05  m  00 43 15.214107 +25 15 28.44000
 2018-Oct-22 11:06  m  00 43 15.207013 +25 15 28.60388
 2018-Oct-22 11:07  m  00 43 15.200006 +25 15 28.76691
 2018-Oct-22 11:08  m  00 43 15.193087 +25 15 28.92910
 2018-Oct-22 11:09  m  00 43 15.186258 +25 15 29.09044
 2018-Oct-22 11:10  m  00 43 15.179518 +25 15 29.25094
 2018-Oct-22 11:11  m  00 43 15.172869 +25 15 29.41060
 2018-Oct-22 11:12  m  00 43 15.166311 +25 15 29.56942
 2018-Oct-22 11:13  m  00 43 15.159844 +25 15 29.72740
 2018-Oct-22 11:14  m  00 43 15.153470 +25 15 29.88455
 2018-Oct-22 11:15  m  00 43 15.147189 +25 15 30.04087
 2018-Oct-22 11:16  m  00 43 15.141001 +25 15 30.19636
 2018-Oct-22 11:17  m  00 43 15.134908 +25 15 30.35102
 2018-Oct-22 11:18  m  00 43 15.128909 +25 15 30.50485
 2018-Oct-22 11:19  m  00 43 15.123006 +25 15 30.65787
 2018-Oct-22 11:20  m  00 43 15.117199 +25 15 30.81006
 2018-Oct-22 11:21  m  00 43 15.111488 +25 15 30.96143
 2018-Oct-22 11:22  m  00 43 15.105875 +25 15 31.11199
 2018-Oct-22 11:23  m  00 43 15.100360 +25 15 31.26174
 2018-Oct-22 11:24  m  00 43 15.094944 +25 15 31.41067
 2018-Oct-22 11:25  m  00 43 15.089627 +25 15 31.55879
 2018-Oct-22 11:26  m  00 43 15.084409 +25 15 31.70611
 2018-Oct-22 11:27  m  00 43 15.079292 +25 15 31.85263
 2018-Oct-22 11:28  m  00 43 15.074276 +25 15 31.99834
 2018-Oct-22 11:29  m  00 43 15.069362 +25 15 32.14326
 2018-Oct-22 11:30  m  00 43 15.064550 +25 15 32.28737
 2018-Oct-22 11:31  m  00 43 15.059841 +25 15 32.43070
 2018-Oct-22 11:32  m  00 43 15.055235 +25 15 32.57323
 2018-Oct-22 11:33  m  00 43 15.050734 +25 15 32.71497
 2018-Oct-22 11:34  m  00 43 15.046337 +25 15 32.85593
 2018-Oct-22 11:35  m  00 43 15.042045 +25 15 32.99611
 2018-Oct-22 11:36  m  00 43 15.037860 +25 15 33.13550
 2018-Oct-22 11:37  m  00 43 15.033781 +25 15 33.27411
 2018-Oct-22 11:38  m  00 43 15.029809 +25 15 33.41195
 2018-Oct-22 11:39  m  00 43 15.025944 +25 15 33.54901
 2018-Oct-22 11:40  m  00 43 15.022188 +25 15 33.68530
 2018-Oct-22 11:41  m  00 43 15.018541 +25 15 33.82083
 2018-Oct-22 11:42  m  00 43 15.015003 +25 15 33.95559
 2018-Oct-22 11:43  m  00 43 15.011575 +25 15 34.08958
 2018-Oct-22 11:44  m  00 43 15.008258 +25 15 34.22282
 2018-Oct-22 11:45  m  00 43 15.005052 +25 15 34.35530
 2018-Oct-22 11:46  m  00 43 15.001958 +25 15 34.48702
 2018-Oct-22 11:47  m  00 43 14.998976 +25 15 34.61799
 2018-Oct-22 11:48  m  00 43 14.996107 +25 15 34.74821
 2018-Oct-22 11:49  m  00 43 14.993352 +25 15 34.87769
 2018-Oct-22 11:50  m  00 43 14.990711 +25 15 35.00642
 2018-Oct-22 11:51  m  00 43 14.988184 +25 15 35.13441
 2018-Oct-22 11:52  m  00 43 14.985773 +25 15 35.26166
 2018-Oct-22 11:53  m  00 43 14.983477 +25 15 35.38817
 2018-Oct-22 11:54  m  00 43 14.981298 +25 15 35.51396
 2018-Oct-22 11:55  m  00 43 14.979235 +25 15 35.63901
 2018-Oct-22 11:56  m  00 43 14.977290 +25 15 35.76334
 2018-Oct-22 11:57  m  00 43 14.975463 +25 15 35.88694
 2018-Oct-22 11:58  m  00 43 14.973755 +25 15 36.00982
 2018-Oct-22 11:59  m  00 43 14.972165 +25 15 36.13199
 2018-Oct-22 12:00  m  00 43 14.970696 +25 15 36.25343
 2018-Oct-22 12:01  m  00 43 14.969346 +25 15 36.37417
 2018-Oct-22 12:02  m  00 43 14.968118 +25 15 36.49420
 2018-Oct-22 12:03  m  00 43 14.967010 +25 15 36.61352
 2018-Oct-22 12:04  m  00 43 14.966025 +25 15 36.73213
 2018-Oct-22 12:05  m  00 43 14.965162 +25 15 36.85005
 2018-Oct-22 12:06  m  00 43 14.964422 +25 15 36.96727
 2018-Oct-22 12:07  m  00 43 14.963805 +25 15 37.08379
 2018-Oct-22 12:08  m  00 43 14.963312 +25 15 37.19962
 2018-Oct-22 12:09  m  00 43 14.962944 +25 15 37.31476
 2018-Oct-22 12:10  m  00 43 14.962700 +25 15 37.42922
 2018-Oct-22 12:11  m  00 43 14.962583 +25 15 37.54300
 2018-Oct-22 12:12  m  00 43 14.962591 +25 15 37.65610
 2018-Oct-22 12:13  m  00 43 14.962726 +25 15 37.76852
 2018-Oct-22 12:14  m  00 43 14.962988 +25 15 37.88026
